STARLINK-5286           
1 55294U 23010AB  25229.16894684  .00000861  00000+0  79944-4 0  9998
2 55294  69.9999 200.0008 0003424 269.1882  90.8884 14.98338521142140
STARLINK-5293           
1 55295U 23010AC  25229.34419377  .00000598  00000+0  57890-4 0  9994
2 55295  69.9994 199.8153 0003440 267.3829  92.6936 14.98332664142174
STARLINK-5285           
1 55296U 23010AD  25229.28135768  .00000788  00000+0  73781-4 0  9995
2 55296  70.0001 179.7247 0002562 266.1097  93.9769 14.98337970143530
STARLINK-5284           
1 55297U 23010AE  25229.28970581  .00000799  00000+0  74753-4 0  9998
2 55297  70.0000 179.7545 0003308 267.5576  92.5204 14.98333985142650
STARLINK-5270           
1 55299U 23010AG  25229.27720797 -.00001645  00000+0 -13019-3 0  9991
2 55299  70.0002 179.7126 0002823 269.9131  90.1704 14.98315553143531
STARLINK-5308           
1 55300U 23010AH  25229.27301197  .00000254  00000+0  29062-4 0  9992
2 55300  70.0002 179.6957 0002854 270.2615  89.8217 14.98332668142653
STARLINK-5321           
1 55302U 23010AK  25229.15201601  .00000620  00000+0  59785-4 0  9992
2 55302  69.9999 180.0741 0003435 265.7765  94.3001 14.98330727142639
STARLINK-5322           
1 55303U 23010AL  25228.35529175  .00000596  00000+0  57776-4 0  9993
2 55303  69.9998 201.9772 0003732 268.6750  91.3982 14.98337758142021
STARLINK-5318           
1 55304U 23010AM  25229.60265611  .00001073  00000+0  97750-4 0  9992
2 55304  70.0003 178.8391 0002955 270.5536  89.5285 14.98324818142704
STARLINK-5316           
1 55305U 23010AN  25229.13117306  .00000526  00000+0  51870-4 0  9993
2 55305  70.0001 180.4081 0003511 265.7001  94.3756 14.98327152142633
STARLINK-5295           
1 55306U 23010AP  25228.23387097 -.00001504  00000+0 -11832-3 0  9992
2 55306  70.0003 162.6201 0002746 270.0852  89.9992 14.98312793142990
STARLINK-5288           
1 55307U 23010AQ  25229.50646471  .00000049  00000+0  11935-4 0  9994
2 55307  70.0008 159.4368 0002814 270.4024  89.6813 14.98331832143181
STARLINK-5315           
1 55309U 23010AS  25229.52313594 -.00000213  00000+0 -10025-4 0  9999
2 55309  70.0010 159.0922 0003065 269.9966  90.0842 14.98328451143197
STARLINK-5309           
1 55310U 23010AT  25229.22690126  .00000005  00000+0  82303-5 0  9993
2 55310  70.0009 160.0639 0002876 271.0592  89.0237 14.98331539143144
STARLINK-5312           
1 55311U 23010AU  25229.23107796  .00000023  00000+0  97073-5 0  9991
2 55311  70.0008 160.0796 0002793 271.1284  88.9555 14.98330121144019
STARLINK-5296           
1 55312U 23010AV  25229.53565219  .00000166  00000+0  21733-4 0  9990
2 55312  70.0009 159.0215 0002094 269.7261  90.3658 14.98329801144066
STARLINK-5313           
1 55313U 23010AW  25229.55235644  .00000628  00000+0  60418-4 0  9995
2 55313  70.0009 159.1929 0002573 268.5309  91.5555 14.98329582142874
