[{"OBJECT_NAME":"STARLINK-5286","OBJECT_ID":"2023-010AB","EPOCH":"2025-08-17T04:03:17.006976","MEAN_MOTION":14.98338521,"ECCENTRICITY":0.0003424,"INCLINATION":69.9999,"RA_OF_ASC_NODE":200.0008,"ARG_OF_PERICENTER":269.1882,"MEAN_ANOMALY":90.8884,"EPHEMERIS_TYPE":0,"CLASSIFICATION_TYPE":"U","NORAD_CAT_ID":55294,"ELEMENT_SET_NO":999,"REV_AT_EPOCH":14214,"BSTAR":7.9944e-5,"MEAN_MOTION_DOT":8.61e-6,"MEAN_MOTION_DDOT":0},{"OBJECT_NAME":"STARLINK-5293","OBJECT_ID":"2023-010AC","EPOCH":"2025-08-17T08:15:38.341728","MEAN_MOTION":14.98332664,"ECCENTRICITY":0.000344,"INCLINATION":69.9994,"RA_OF_ASC_NODE":199.8153,"ARG_OF_PERICENTER":267.3829,"MEAN_ANOMALY":92.6936,"EPHEMERIS_TYPE":0,"CLASSIFICATION_TYPE":"U","NORAD_CAT_ID":55295,"ELEMENT_SET_NO":999,"REV_AT_EPOCH":14217,"BSTAR":5.789e-5,"MEAN_MOTION_DOT":5.98e-6,"MEAN_MOTION_DDOT":0},{"OBJECT_NAME":"STARLINK-5285","OBJECT_ID":"2023-010AD","EPOCH":"2025-08-17T06:45:09.303552","MEAN_MOTION":14.9833797,"ECCENTRICITY":0.0002562,"INCLINATION":70.0001,"RA_OF_ASC_NODE":179.7247,"ARG_OF_PERICENTER":266.1097,"MEAN_ANOMALY":93.9769,"EPHEMERIS_TYPE":0,"CLASSIFICATION_TYPE":"U","NORAD_CAT_ID":55296,"ELEMENT_SET_NO":999,"REV_AT_EPOCH":14353,"BSTAR":7.3781e-5,"MEAN_MOTION_DOT":7.88e-6,"MEAN_MOTION_DDOT":0},{"OBJECT_NAME":"STARLINK-5284","OBJECT_ID":"2023-010AE","EPOCH":"2025-08-17T06:57:10.581984","MEAN_MOTION":14.98333985,"ECCENTRICITY":0.0003308,"INCLINATION":70,"RA_OF_ASC_NODE":179.7545,"ARG_OF_PERICENTER":267.5576,"MEAN_ANOMALY":92.5204,"EPHEMERIS_TYPE":0,"CLASSIFICATION_TYPE":"U","NORAD_CAT_ID":55297,"ELEMENT_SET_NO":999,"REV_AT_EPOCH":14265,"BSTAR":7.4753e-5,"MEAN_MOTION_DOT":7.99e-6,"MEAN_MOTION_DDOT":0},{"OBJECT_NAME":"STARLINK-5270","OBJECT_ID":"2023-010AG","EPOCH":"2025-08-17T06:39:10.768608","MEAN_MOTION":14.98315553,"ECCENTRICITY":0.0002823,"INCLINATION":70.0002,"RA_OF_ASC_NODE":179.7126,"ARG_OF_PERICENTER":269.9131,"MEAN_ANOMALY":90.1704,"EPHEMERIS_TYPE":0,"CLASSIFICATION_TYPE":"U","NORAD_CAT_ID":55299,"ELEMENT_SET_NO":999,"REV_AT_EPOCH":14353,"BSTAR":-0.00013019,"MEAN_MOTION_DOT":-1.645e-5,"MEAN_MOTION_DDOT":0},{"OBJECT_NAME":"STARLINK-5308","OBJECT_ID":"2023-010AH","EPOCH":"2025-08-17T06:33:08.234208","MEAN_MOTION":14.98332668,"ECCENTRICITY":0.0002854,"INCLINATION":70.0002,"RA_OF_ASC_NODE":179.6957,"ARG_OF_PERICENTER":270.2615,"MEAN_ANOMALY":89.8217,"EPHEMERIS_TYPE":0,"CLASSIFICATION_TYPE":"U","NORAD_CAT_ID":55300,"ELEMENT_SET_NO":999,"REV_AT_EPOCH":14265,"BSTAR":2.9062e-5,"MEAN_MOTION_DOT":2.54e-6,"MEAN_MOTION_DDOT":0},{"OBJECT_NAME":"STARLINK-5321","OBJECT_ID":"2023-010AK","EPOCH":"2025-08-17T03:38:54.183264","MEAN_MOTION":14.98330727,"ECCENTRICITY":0.0003435,"INCLINATION":69.9999,"RA_OF_ASC_NODE":180.0741,"ARG_OF_PERICENTER":265.7765,"MEAN_ANOMALY":94.3001,"EPHEMERIS_TYPE":0,"CLASSIFICATION_TYPE":"U","NORAD_CAT_ID":55302,"ELEMENT_SET_NO":999,"REV_AT_EPOCH":14263,"BSTAR":5.9785e-5,"MEAN_MOTION_DOT":6.2e-6,"MEAN_MOTION_DDOT":0},{"OBJECT_NAME":"STARLINK-5322","OBJECT_ID":"2023-010AL","EPOCH":"2025-08-16T08:31:37.207200","MEAN_MOTION":14.98337758,"ECCENTRICITY":0.0003732,"INCLINATION":69.9998,"RA_OF_ASC_NODE":201.9772,"ARG_OF_PERICENTER":268.675,"MEAN_ANOMALY":91.3982,"EPHEMERIS_TYPE":0,"CLASSIFICATION_TYPE":"U","NORAD_CAT_ID":55303,"ELEMENT_SET_NO":999,"REV_AT_EPOCH":14202,"BSTAR":5.7776e-5,"MEAN_MOTION_DOT":5.96e-6,"MEAN_MOTION_DDOT":0},{"OBJECT_NAME":"STARLINK-5318","OBJECT_ID":"2023-010AM","EPOCH":"2025-08-17T14:27:49.487904","MEAN_MOTION":14.98324818,"ECCENTRICITY":0.0002955,"INCLINATION":70.0003,"RA_OF_ASC_NODE":178.8391,"ARG_OF_PERICENTER":270.5536,"MEAN_ANOMALY":89.5285,"EPHEMERIS_TYPE":0,"CLASSIFICATION_TYPE":"U","NORAD_CAT_ID":55304,"ELEMENT_SET_NO":999,"REV_AT_EPOCH":14270,"BSTAR":9.775e-5,"MEAN_MOTION_DOT":1.073e-5,"MEAN_MOTION_DDOT":0},{"OBJECT_NAME":"STARLINK-5316","OBJECT_ID":"2023-010AN","EPOCH":"2025-08-17T03:08:53.352384","MEAN_MOTION":14.98327152,"ECCENTRICITY":0.0003511,"INCLINATION":70.0001,"RA_OF_ASC_NODE":180.4081,"ARG_OF_PERICENTER":265.7001,"MEAN_ANOMALY":94.3756,"EPHEMERIS_TYPE":0,"CLASSIFICATION_TYPE":"U","NORAD_CAT_ID":55305,"ELEMENT_SET_NO":999,"REV_AT_EPOCH":14263,"BSTAR":5.187e-5,"MEAN_MOTION_DOT":5.26e-6,"MEAN_MOTION_DDOT":0},{"OBJECT_NAME":"STARLINK-5295","OBJECT_ID":"2023-010AP","EPOCH":"2025-08-16T05:36:46.451808","MEAN_MOTION":14.98312793,"ECCENTRICITY":0.0002746,"INCLINATION":70.0003,"RA_OF_ASC_NODE":162.6201,"ARG_OF_PERICENTER":270.0852,"MEAN_ANOMALY":89.9992,"EPHEMERIS_TYPE":0,"CLASSIFICATION_TYPE":"U","NORAD_CAT_ID":55306,"ELEMENT_SET_NO":999,"REV_AT_EPOCH":14299,"BSTAR":-0.00011832,"MEAN_MOTION_DOT":-1.504e-5,"MEAN_MOTION_DDOT":0},{"OBJECT_NAME":"STARLINK-5288","OBJECT_ID":"2023-010AQ","EPOCH":"2025-08-17T12:09:18.550944","MEAN_MOTION":14.98331832,"ECCENTRICITY":0.0002814,"INCLINATION":70.0008,"RA_OF_ASC_NODE":159.4368,"ARG_OF_PERICENTER":270.4024,"MEAN_ANOMALY":89.6813,"EPHEMERIS_TYPE":0,"CLASSIFICATION_TYPE":"U","NORAD_CAT_ID":55307,"ELEMENT_SET_NO":999,"REV_AT_EPOCH":14318,"BSTAR":1.1935e-5,"MEAN_MOTION_DOT":4.9e-7,"MEAN_MOTION_DDOT":0},{"OBJECT_NAME":"STARLINK-5315","OBJECT_ID":"2023-010AS","EPOCH":"2025-08-17T12:33:18.945216","MEAN_MOTION":14.98328451,"ECCENTRICITY":0.0003065,"INCLINATION":70.001,"RA_OF_ASC_NODE":159.0922,"ARG_OF_PERICENTER":269.9966,"MEAN_ANOMALY":90.0842,"EPHEMERIS_TYPE":0,"CLASSIFICATION_TYPE":"U","NORAD_CAT_ID":55309,"ELEMENT_SET_NO":999,"REV_AT_EPOCH":14319,"BSTAR":-1.0025e-5,"MEAN_MOTION_DOT":-2.13e-6,"MEAN_MOTION_DDOT":0},{"OBJECT_NAME":"STARLINK-5309","OBJECT_ID":"2023-010AT","EPOCH":"2025-08-17T05:26:44.268864","MEAN_MOTION":14.98331539,"ECCENTRICITY":0.0002876,"INCLINATION":70.0009,"RA_OF_ASC_NODE":160.0639,"ARG_OF_PERICENTER":271.0592,"MEAN_ANOMALY":89.0237,"EPHEMERIS_TYPE":0,"CLASSIFICATION_TYPE":"U","NORAD_CAT_ID":55310,"ELEMENT_SET_NO":999,"REV_AT_EPOCH":14314,"BSTAR":8.2303e-6,"MEAN_MOTION_DOT":5.0e-8,"MEAN_MOTION_DDOT":0},{"OBJECT_NAME":"STARLINK-5312","OBJECT_ID":"2023-010AU","EPOCH":"2025-08-17T05:32:45.135744","MEAN_MOTION":14.98330121,"ECCENTRICITY":0.0002793,"INCLINATION":70.0008,"RA_OF_ASC_NODE":160.0796,"ARG_OF_PERICENTER":271.1284,"MEAN_ANOMALY":88.9555,"EPHEMERIS_TYPE":0,"CLASSIFICATION_TYPE":"U","NORAD_CAT_ID":55311,"ELEMENT_SET_NO":999,"REV_AT_EPOCH":14401,"BSTAR":9.7073e-6,"MEAN_MOTION_DOT":2.3e-7,"MEAN_MOTION_DDOT":0},{"OBJECT_NAME":"STARLINK-5296","OBJECT_ID":"2023-010AV","EPOCH":"2025-08-17T12:51:20.349216","MEAN_MOTION":14.98329801,"ECCENTRICITY":0.0002094,"INCLINATION":70.0009,"RA_OF_ASC_NODE":159.0215,"ARG_OF_PERICENTER":269.7261,"MEAN_ANOMALY":90.3658,"EPHEMERIS_TYPE":0,"CLASSIFICATION_TYPE":"U","NORAD_CAT_ID":55312,"ELEMENT_SET_NO":999,"REV_AT_EPOCH":14406,"BSTAR":2.1733e-5,"MEAN_MOTION_DOT":1.66e-6,"MEAN_MOTION_DDOT":0},{"OBJECT_NAME":"STARLINK-5313","OBJECT_ID":"2023-010AW","EPOCH":"2025-08-17T13:15:23.596416","MEAN_MOTION":14.98329582,"ECCENTRICITY":0.0002573,"INCLINATION":70.0009,"RA_OF_ASC_NODE":159.1929,"ARG_OF_PERICENTER":268.5309,"MEAN_ANOMALY":91.5555,"EPHEMERIS_TYPE":0,"CLASSIFICATION_TYPE":"U","NORAD_CAT_ID":55313,"ELEMENT_SET_NO":999,"REV_AT_EPOCH":14287,"BSTAR":6.0418e-5,"MEAN_MOTION_DOT":6.28e-6,"MEAN_MOTION_DDOT":0}]
